{
"type": "FeatureCollection",
"crs": { "type": "name", "properties": { "name": "urn:ogc:def:crs:EPSG::28992" } },
                                                                                
"features": [
{ "type": "Feature", "id": 23283, "properties": { "object_id": 358010018976033.000000, "GEBRUIKSDO": "kantoorfunctie", "openbareruimte": "Oosteinderweg", "huisnummer": 132, "postcode": "1432AP", "woonplaats": "Aalsmeer", "NR": 6 }, "geometry": { "type": "Point", "coordinates": [ 113164.906, 476626.041 ] } },
{ "type": "Feature", "id": 45668, "properties": { "object_id": 358010022232969.000000, "GEBRUIKSDO": "kantoorfunctie", "openbareruimte": "Hugo de Vriesstraat", "huisnummer": 40, "postcode": "1431KB", "woonplaats": "Aalsmeer", "NR": 14 }, "geometry": { "type": "Point", "coordinates": [ 112969.644, 475286.823 ] } },
{ "type": "Feature", "id": 60711, "properties": { "object_id": 361010000012791.000000, "GEBRUIKSDO": "kantoorfunctie", "openbareruimte": "Helderseweg", "huisnummer": 17, "postcode": "1815AB", "woonplaats": "Alkmaar", "NR": 18 }, "geometry": { "type": "Point", "coordinates": [ 111553.437, 516993.518 ] } },
{ "type": "Feature", "id": 107970, "properties": { "object_id": 361010000108656.000000, "GEBRUIKSDO": "kantoorfunctie", "openbareruimte": "Berenkoog", "huisnummer": 37, "postcode": "1822BH", "woonplaats": "Alkmaar", "NR": 43 }, "geometry": { "type": "Point", "coordinates": [ 114401.592, 518312.004 ] } },
{ "type": "Feature", "id": 281403, "properties": { "object_id": 363010000620065.000000, "GEBRUIKSDO": "kantoorfunctie", "openbareruimte": "De Wittenstraat", "huisnummer": 102, "postcode": "1052BB", "woonplaats": "Amsterdam", "NR": 110 }, "geometry": { "type": "Point", "coordinates": [ 120331.0, 488462.0 ] } },
{ "type": "Feature", "id": 313611, "properties": { "object_id": 363010000647924.000000, "GEBRUIKSDO": "kantoorfunctie", "openbareruimte": "Gatwickstraat", "huisnummer": 9, "postcode": "1043GL", "woonplaats": "Amsterdam", "NR": 123 }, "geometry": { "type": "Point", "coordinates": [ 117950.0, 489348.0 ] } },
{ "type": "Feature", "id": 424855, "properties": { "object_id": 363010000734558.000000, "GEBRUIKSDO": "kantoorfunctie", "openbareruimte": "Marco Polostraat", "huisnummer": 173, "postcode": "1057WJ", "woonplaats": "Amsterdam", "NR": 151 }, "geometry": { "type": "Point", "coordinates": [ 118800.0, 486969.0 ] } },
{ "type": "Feature", "id": 773021, "properties": { "object_id": 363010001008585.000000, "GEBRUIKSDO": "kantoorfunctie", "openbareruimte": "Van Moerkerkenstraat", "huisnummer": 69, "postcode": "1064KC", "woonplaats": "Amsterdam", "NR": 280 }, "geometry": { "type": "Point", "coordinates": [ 115876.0, 488001.0 ] } },
{ "type": "Feature", "id": 881826, "properties": { "object_id": 363010011872220.000000, "GEBRUIKSDO": "kantoorfunctie", "openbareruimte": "Papaverweg", "huisnummer": 2, "postcode": "1032KH", "woonplaats": "Amsterdam", "NR": 398 }, "geometry": { "type": "Point", "coordinates": [ 122719.0, 489617.0 ] } },
{ "type": "Feature", "id": 921970, "properties": { "object_id": 363010012073935.000000, "GEBRUIKSDO": "kantoorfunctie", "openbareruimte": "Vondelstraat", "huisnummer": 138, "postcode": "1054GT", "woonplaats": "Amsterdam", "NR": 423 }, "geometry": { "type": "Point", "coordinates": [ 119927.839, 486028.422 ] } },
{ "type": "Feature", "id": 978949, "properties": { "object_id": 364010000002257.000000, "GEBRUIKSDO": "kantoorfunctie", "openbareruimte": "Handelsweg", "huisnummer": 37, "postcode": "1619BJ", "woonplaats": "Andijk", "NR": 487 }, "geometry": { "type": "Point", "coordinates": [ 144594.517, 528168.663 ] } },
{ "type": "Feature", "id": 982386, "properties": { "object_id": 365010000001464.000000, "GEBRUIKSDO": "kantoorfunctie", "openbareruimte": "De Volger", "huisnummer": 25, "postcode": "1483GA", "woonplaats": "De Rijp", "NR": 490 }, "geometry": { "type": "Point", "coordinates": [ 118283.813, 506981.278 ] } },
{ "type": "Feature", "id": 1121914, "properties": { "object_id": 384010000001683.000000, "GEBRUIKSDO": "kantoorfunctie", "openbareruimte": "Diemerhof", "huisnummer": 6, "postcode": "1112XL", "woonplaats": "Diemen", "NR": 536 }, "geometry": { "type": "Point", "coordinates": [ 125298.145, 482269.943 ] } },
{ "type": "Feature", "id": 1122162, "properties": { "object_id": 384010000001980.000000, "GEBRUIKSDO": "kantoorfunctie", "openbareruimte": "Dalsteindreef", "huisnummer": 149, "postcode": "1112XJ", "woonplaats": "Diemen", "NR": 537 }, "geometry": { "type": "Point", "coordinates": [ 125490.09, 482364.613 ] } },
{ "type": "Feature", "id": 1148257, "properties": { "object_id": 385010000008329.000000, "GEBRUIKSDO": "kantoorfunctie", "openbareruimte": "Boezelgracht", "huisnummer": 17, "postcode": "1132PE", "woonplaats": "Volendam", "NR": 551 }, "geometry": { "type": "Point", "coordinates": [ 132942.0, 501800.0 ] } },
{ "type": "Feature", "id": 1157578, "properties": { "object_id": 388010000212144.000000, "GEBRUIKSDO": "kantoorfunctie", "openbareruimte": "Venedie", "huisnummer": 7, "postcode": "1601HA", "woonplaats": "Enkhuizen", "NR": 552 }, "geometry": { "type": "Point", "coordinates": [ 148454.0, 523975.0 ] } },
{ "type": "Feature", "id": 1274482, "properties": { "object_id": 392010000097011.000000, "GEBRUIKSDO": "kantoorfunctie", "openbareruimte": "De Clercqstraat", "huisnummer": 85, "postcode": "2013PP", "woonplaats": "Haarlem", "NR": 598 }, "geometry": { "type": "Point", "coordinates": [ 102956.28, 488299.074 ] } },
{ "type": "Feature", "id": 1332691, "properties": { "object_id": 394010000323454.000000, "GEBRUIKSDO": "kantoorfunctie", "openbareruimte": "Binnenweg", "huisnummer": 18, "postcode": "2132CT", "woonplaats": "Hoofddorp", "NR": 626 }, "geometry": { "type": "Point", "coordinates": [ 107561.652, 479186.831 ] } },
{ "type": "Feature", "id": 1372037, "properties": { "object_id": 395010000002077.000000, "GEBRUIKSDO": "kantoorfunctie", "openbareruimte": "Dorpsstraat", "huisnummer": 8, "postcode": "1746AC", "woonplaats": "Dirkshorn", "NR": 707 }, "geometry": { "type": "Point", "coordinates": [ 113885.259, 529293.591 ] } },
{ "type": "Feature", "id": 1374547, "properties": { "object_id": 395010000004211.000000, "GEBRUIKSDO": "kantoorfunctie", "openbareruimte": "Oudevaart", "huisnummer": 91, "postcode": "1749CH", "woonplaats": "Warmenhuizen", "NR": 709 }, "geometry": { "type": "Point", "coordinates": [ 110397.517, 525521.83 ] } },
{ "type": "Feature", "id": 1401582, "properties": { "object_id": 396010001021408.000000, "GEBRUIKSDO": "kantoorfunctie", "openbareruimte": "De Trompet", "huisnummer": 1135, "postcode": "1967DA", "woonplaats": "Heemskerk", "NR": 717 }, "geometry": { "type": "Point", "coordinates": [ 108220.38, 502394.561 ] } },
{ "type": "Feature", "id": 1424089, "properties": { "object_id": 398010000004848.000000, "GEBRUIKSDO": "kantoorfunctie", "openbareruimte": "J. Duikerweg", "huisnummer": 14, "postcode": "1703DH", "woonplaats": "Heerhugowaard", "NR": 723 }, "geometry": { "type": "Point", "coordinates": [ 116091.098, 519607.512 ] } },
{ "type": "Feature", "id": 1426454, "properties": { "object_id": 398010000007015.000000, "GEBRUIKSDO": "kantoorfunctie", "openbareruimte": "Marsmanstraat", "huisnummer": 2, "postcode": "1702GA", "woonplaats": "Heerhugowaard", "NR": 725 }, "geometry": { "type": "Point", "coordinates": [ 117940.115, 520066.681 ] } },
{ "type": "Feature", "id": 1434717, "properties": { "object_id": 398010000014318.000000, "GEBRUIKSDO": "kantoorfunctie", "openbareruimte": "Albert Soncklaan", "huisnummer": 3, "postcode": "1701BX", "woonplaats": "Heerhugowaard", "NR": 727 }, "geometry": { "type": "Point", "coordinates": [ 117912.056, 521135.15 ] } },
{ "type": "Feature", "id": 1451917, "properties": { "object_id": 399010000000040.000000, "GEBRUIKSDO": "kantoorfunctie", "openbareruimte": "Kennemerstraatweg", "huisnummer": 514, "postcode": "1851NH", "woonplaats": "Heiloo", "NR": 732 }, "geometry": { "type": "Point", "coordinates": [ 108808.556, 512015.535 ] } },
{ "type": "Feature", "id": 1458601, "properties": { "object_id": 399010000003727.000000, "GEBRUIKSDO": "kantoorfunctie", "openbareruimte": "De Loet", "huisnummer": 4, "postcode": "1851CR", "woonplaats": "Heiloo", "NR": 735 }, "geometry": { "type": "Point", "coordinates": [ 109597.88, 513062.025 ] } },
{ "type": "Feature", "id": 1477454, "properties": { "object_id": 400010000002418.000000, "GEBRUIKSDO": "kantoorfunctie", "openbareruimte": "Baljuwstraat", "huisnummer": 141, "postcode": "1785SH", "woonplaats": "Den Helder", "NR": 736 }, "geometry": { "type": "Point", "coordinates": [ 113549.531, 549932.1 ] } },
{ "type": "Feature", "id": 1521700, "properties": { "object_id": 400010000040090.000000, "GEBRUIKSDO": "kantoorfunctie", "openbareruimte": "Luchthavenweg", "huisnummer": 4, "postcode": "1786PP", "woonplaats": "Den Helder", "NR": 748 }, "geometry": { "type": "Point", "coordinates": [ 114561.97, 548442.26 ] } },
{ "type": "Feature", "id": 1532989, "properties": { "object_id": 402010001544405.000000, "GEBRUIKSDO": "kantoorfunctie", "openbareruimte": "Gijsbrecht van Amstelstraat", "huisnummer": 1, "postcode": "1213CG", "woonplaats": "Hilversum", "NR": 751 }, "geometry": { "type": "Point", "coordinates": [ 140949.964, 469685.627 ] } },
{ "type": "Feature", "id": 1683982, "properties": { "object_id": 416010000236180.000000, "GEBRUIKSDO": "kantoorfunctie", "openbareruimte": "de Mossel", "huisnummer": 17, "postcode": "1723HZ", "woonplaats": "Noord-Scharwoude", "NR": 808 }, "geometry": { "type": "Point", "coordinates": [ 115857.0, 524354.0 ] } },
{ "type": "Feature", "id": 1728456, "properties": { "object_id": 425010000009277.000000, "GEBRUIKSDO": "kantoorfunctie", "openbareruimte": "Nikkelstraat", "huisnummer": 51, "postcode": "1411AH", "woonplaats": "Naarden", "NR": 834 }, "geometry": { "type": "Point", "coordinates": [ 138600.95, 479686.468 ] } },
{ "type": "Feature", "id": 1728989, "properties": { "object_id": 425010000009445.000000, "GEBRUIKSDO": "kantoorfunctie", "openbareruimte": "IJsselmeerweg", "huisnummer": 1, "postcode": "1411AA", "woonplaats": "Naarden", "NR": 836 }, "geometry": { "type": "Point", "coordinates": [ 138348.958, 479913.287 ] } },
{ "type": "Feature", "id": 1778364, "properties": { "object_id": 439010000024393.000000, "GEBRUIKSDO": "kantoorfunctie", "openbareruimte": "Flevostraat", "huisnummer": 154, "postcode": "1442PZ", "woonplaats": "Purmerend", "NR": 855 }, "geometry": { "type": "Point", "coordinates": [ 127448.971, 503477.905 ] } },
{ "type": "Feature", "id": 1799192, "properties": { "object_id": 439010000040755.000000, "GEBRUIKSDO": "kantoorfunctie", "openbareruimte": "Waterlandlaan", "huisnummer": 40, "postcode": "1441MP", "woonplaats": "Purmerend", "NR": 859 }, "geometry": { "type": "Point", "coordinates": [ 125827.0, 501988.273 ] } },
{ "type": "Feature", "id": 1806474, "properties": { "object_id": 441010001005382.000000, "GEBRUIKSDO": "kantoorfunctie", "openbareruimte": "Witte Paal", "huisnummer": 153, "postcode": "1742NX", "woonplaats": "Schagen", "NR": 865 }, "geometry": { "type": "Point", "coordinates": [ 116165.0, 532239.0 ] } },
{ "type": "Feature", "id": 1833702, "properties": { "object_id": 448010000011791.000000, "GEBRUIKSDO": "kantoorfunctie", "openbareruimte": "De Vang", "huisnummer": 41, "postcode": "1792CV", "woonplaats": "Oudeschild", "NR": 881 }, "geometry": { "type": "Point", "coordinates": [ 119339.906, 562265.173 ] } },
{ "type": "Feature", "id": 1848290, "properties": { "object_id": 451010000001917.000000, "GEBRUIKSDO": "kantoorfunctie", "openbareruimte": "Wilhelminakade", "huisnummer": 23, "postcode": "1421AB", "woonplaats": "Uithoorn", "NR": 887 }, "geometry": { "type": "Point", "coordinates": [ 117253.303, 471871.243 ] } },
{ "type": "Feature", "id": 1906647, "properties": { "object_id": 453010003048920.000000, "GEBRUIKSDO": "kantoorfunctie", "openbareruimte": "Monnickendamkade", "huisnummer": 19, "postcode": "1976EC", "woonplaats": "IJmuiden", "NR": 916 }, "geometry": { "type": "Point", "coordinates": [ 99573.768, 497421.965 ] } },
{ "type": "Feature", "id": 1922302, "properties": { "object_id": 457010000059606.000000, "GEBRUIKSDO": "kantoorfunctie", "openbareruimte": "C.J.van Houtenlaan", "huisnummer": 36, "postcode": "1381CP", "woonplaats": "Weesp", "NR": 932 }, "geometry": { "type": "Point", "coordinates": [ 130935.696, 479519.16 ] } },
{ "type": "Feature", "id": 1935035, "properties": { "object_id": 462010000001915.000000, "GEBRUIKSDO": "kantoorfunctie", "openbareruimte": "Voorstraat", "huisnummer": 3, "postcode": "1779AC", "woonplaats": "Den Oever", "NR": 938 }, "geometry": { "type": "Point", "coordinates": [ 131143.728, 549947.128 ] } },
{ "type": "Feature", "id": 1975083, "properties": { "object_id": 479010000000309.000000, "GEBRUIKSDO": "kantoorfunctie", "openbareruimte": "Klampersstraat", "huisnummer": 16, "postcode": "1502VP", "woonplaats": "Zaandam", "NR": 942 }, "geometry": { "type": "Point", "coordinates": [ 116799.0, 495243.0 ] } },
{ "type": "Feature", "id": 1998104, "properties": { "object_id": 479010000020866.000000, "GEBRUIKSDO": "kantoorfunctie", "openbareruimte": "Westkade", "huisnummer": 2, "postcode": "1506BA", "woonplaats": "Zaandam", "NR": 949 }, "geometry": { "type": "Point", "coordinates": [ 116825.0, 494729.0 ] } },
{ "type": "Feature", "id": 2020958, "properties": { "object_id": 479010000041613.000000, "GEBRUIKSDO": "kantoorfunctie", "openbareruimte": "Vaartdijk", "huisnummer": 1, "postcode": "1521HR", "woonplaats": "Wormerveer", "NR": 958 }, "geometry": { "type": "Point", "coordinates": [ 113326.0, 500948.0 ] } },
{ "type": "Feature", "id": 2074353, "properties": { "object_id": 498010000005098.000000, "GEBRUIKSDO": "kantoorfunctie", "openbareruimte": "Streekweg", "huisnummer": 218, "postcode": "1616AN", "woonplaats": "Hoogkarspel", "NR": 972 }, "geometry": { "type": "Point", "coordinates": [ 140873.0, 523033.0 ] } },
{ "type": "Feature", "id": 2103666, "properties": { "object_id": 852010000005570.000000, "GEBRUIKSDO": "kantoorfunctie", "openbareruimte": "Galgeriet", "huisnummer": 10, "postcode": "1141GM", "woonplaats": "Monnickendam", "NR": 977 }, "geometry": { "type": "Point", "coordinates": [ 131419.0, 496706.0 ] } },
{ "type": "Feature", "id": 2150854, "properties": { "object_id": 1911010000584873.000000, "GEBRUIKSDO": "kantoorfunctie", "openbareruimte": "Zandruiter", "huisnummer": 9, "postcode": "1731LJ", "woonplaats": "Winkel", "NR": 995 }, "geometry": { "type": "Point", "coordinates": [ 121412.678, 530659.823 ] } }
]
}
